{
  "type": "FeatureCollection",
  "features": [
    {
      "type": "Feature",
      "properties": {
        "norad_id": 66561,
        "name": "STARLINK-35305",
        "group": "last-30-days",
        "lat": -7.354239242441938,
        "lon": -136.86870754753912,
        "alt_km": 451.79565060202003,
        "timestamp": "2025-12-27T10:28:57.512623+00:00",
        "meta_object_name": "STARLINK-35305",
        "meta_object_id": "2025-268E",
        "meta_epoch": "2025-12-27T04:00:01.998720",
        "meta_mean_motion": 15.39528017,
        "meta_eccentricity": 0.0001205,
        "meta_inclination": 43.0008,
        "meta_ra_of_asc_node": 36.7228,
        "meta_arg_of_pericenter": 287.4958,
        "meta_mean_anomaly": 205.1631,
        "meta_ephemeris_type": 0,
        "meta_classification_type": "U",
        "meta_norad_cat_id": 66561,
        "meta_element_set_no": 999,
        "meta_rev_at_epoch": 599,
        "meta_bstar": -0.056303,
        "meta_mean_motion_dot": -0.02012456,
        "meta_mean_motion_ddot": 0,
        "tle_line1": "1 66561U 25268E   25361.16668980 -.02012456  00000+0 -56303-1 0  9997",
        "tle_line2": "2 66561  43.0008  36.7228 0001205 287.4958 205.1631 15.39528017  5992"
      },
      "geometry": {
        "type": "Point",
        "coordinates": [
          -136.86870754753912,
          -7.354239242441938
        ]
      }
    },
    {
      "type": "Feature",
      "properties": {
        "norad_id": 66562,
        "name": "STARLINK-35579",
        "group": "last-30-days",
        "lat": 2.3835335853930615,
        "lon": -147.3554030330253,
        "alt_km": 453.25526517180333,
        "timestamp": "2025-12-27T10:28:57.512634+00:00",
        "meta_object_name": "STARLINK-35579",
        "meta_object_id": "2025-268F",
        "meta_epoch": "2025-12-27T04:00:01.998720",
        "meta_mean_motion": 15.38670197,
        "meta_eccentricity": 0.0001319,
        "meta_inclination": 43.0003,
        "meta_ra_of_asc_node": 36.7553,
        "meta_arg_of_pericenter": 284.1324,
        "meta_mean_anomaly": 195.0347,
        "meta_ephemeris_type": 0,
        "meta_classification_type": "U",
        "meta_norad_cat_id": 66562,
        "meta_element_set_no": 999,
        "meta_rev_at_epoch": 605,
        "meta_bstar": -0.056961,
        "meta_mean_motion_dot": -0.01982602,
        "meta_mean_motion_ddot": 0,
        "tle_line1": "1 66562U 25268F   25361.16668980 -.01982602  00000+0 -56961-1 0  9996",
        "tle_line2": "2 66562  43.0003  36.7553 0001319 284.1324 195.0347 15.38670197  6051"
      },
      "geometry": {
        "type": "Point",
        "coordinates": [
          -147.3554030330253,
          2.3835335853930615
        ]
      }
    },
    {
      "type": "Feature",
      "properties": {
        "norad_id": 66563,
        "name": "STARLINK-35437",
        "group": "last-30-days",
        "lat": -16.47395294651175,
        "lon": -126.36324616490938,
        "alt_km": 450.1146694879544,
        "timestamp": "2025-12-27T10:28:57.512647+00:00",
        "meta_object_name": "STARLINK-35437",
        "meta_object_id": "2025-268G",
        "meta_epoch": "2025-12-27T04:00:01.998720",
        "meta_mean_motion": 15.40383183,
        "meta_eccentricity": 0.0001103,
        "meta_inclination": 43.0008,
        "meta_ra_of_asc_node": 36.6894,
        "meta_arg_of_pericenter": 289.2052,
        "meta_mean_anomaly": 216.3965,
        "meta_ephemeris_type": 0,
        "meta_classification_type": "U",
        "meta_norad_cat_id": 66563,
        "meta_element_set_no": 999,
        "meta_rev_at_epoch": 599,
        "meta_bstar": -0.056135,
        "meta_mean_motion_dot": -0.02058574,
        "meta_mean_motion_ddot": 0,
        "tle_line1": "1 66563U 25268G   25361.16668980 -.02058574  00000+0 -56135-1 0  9993",
        "tle_line2": "2 66563  43.0008  36.6894 0001103 289.2052 216.3965 15.40383183  5993"
      },
      "geometry": {
        "type": "Point",
        "coordinates": [
          -126.36324616490938,
          -16.47395294651175
        ]
      }
    },
    {
      "type": "Feature",
      "properties": {
        "norad_id": 66564,
        "name": "STARLINK-35358",
        "group": "last-30-days",
        "lat": -24.680912076134522,
        "lon": -115.34943237542063,
        "alt_km": 447.8928553394808,
        "timestamp": "2025-12-27T10:28:57.512660+00:00",
        "meta_object_name": "STARLINK-35358",
        "meta_object_id": "2025-268H",
        "meta_epoch": "2025-12-27T04:00:01.998720",
        "meta_mean_motion": 15.41217538,
        "meta_eccentricity": 0.000129,
        "meta_inclination": 43.0002,
        "meta_ra_of_asc_node": 36.6594,
        "meta_arg_of_pericenter": 279.0374,
        "meta_mean_anomaly": 238.9468,
        "meta_ephemeris_type": 0,
        "meta_classification_type": "U",
        "meta_norad_cat_id": 66564,
        "meta_element_set_no": 999,
        "meta_rev_at_epoch": 605,
        "meta_bstar": -0.054201,
        "meta_mean_motion_dot": -0.02045786,
        "meta_mean_motion_ddot": 0,
        "tle_line1": "1 66564U 25268H   25361.16668980 -.02045786  00000+0 -54201-1 0  9997",
        "tle_line2": "2 66564  43.0002  36.6594 0001290 279.0374 238.9468 15.41217538  6053"
      },
      "geometry": {
        "type": "Point",
        "coordinates": [
          -115.34943237542063,
          -24.680912076134522
        ]
      }
    },
    {
      "type": "Feature",
      "properties": {
        "norad_id": 66565,
        "name": "STARLINK-35893",
        "group": "last-30-days",
        "lat": -31.685582927706548,
        "lon": -103.44623072555267,
        "alt_km": 445.75413064262557,
        "timestamp": "2025-12-27T10:28:57.512671+00:00",
        "meta_object_name": "STARLINK-35893",
        "meta_object_id": "2025-268J",
        "meta_epoch": "2025-12-27T04:00:01.998720",
        "meta_mean_motion": 15.42048725,
        "meta_eccentricity": 0.0001221,
        "meta_inclination": 43.0007,
        "meta_ra_of_asc_node": 36.6299,
        "meta_arg_of_pericenter": 280.2591,
        "meta_mean_anomaly": 249.547,
        "meta_ephemeris_type": 0,
        "meta_classification_type": "U",
        "meta_norad_cat_id": 66565,
        "meta_element_set_no": 999,
        "meta_rev_at_epoch": 605,
        "meta_bstar": -0.052451,
        "meta_mean_motion_dot": -0.02037062,
        "meta_mean_motion_ddot": 0,
        "tle_line1": "1 66565U 25268J   25361.16668980 -.02037062  00000+0 -52451-1 0  9991",
        "tle_line2": "2 66565  43.0007  36.6299 0001221 280.2591 249.5470 15.42048725  6052"
      },
      "geometry": {
        "type": "Point",
        "coordinates": [
          -103.44623072555267,
          -31.685582927706548
        ]
      }
    },
    {
      "type": "Feature",
      "properties": {
        "norad_id": 66566,
        "name": "STARLINK-35871",
        "group": "last-30-days",
        "lat": -35.675388359448604,
        "lon": -94.5574645055257,
        "alt_km": 444.38927176614743,
        "timestamp": "2025-12-27T10:28:57.512682+00:00",
        "meta_object_name": "STARLINK-35871",
        "meta_object_id": "2025-268K",
        "meta_epoch": "2025-12-27T04:00:01.998720",
        "meta_mean_motion": 15.42593122,
        "meta_eccentricity": 0.0001002,
        "meta_inclination": 43.0001,
        "meta_ra_of_asc_node": 36.6106,
        "meta_arg_of_pericenter": 275.7433,
        "meta_mean_anomaly": 261.9642,
        "meta_ephemeris_type": 0,
        "meta_classification_type": "U",
        "meta_norad_cat_id": 66566,
        "meta_element_set_no": 999,
        "meta_rev_at_epoch": 605,
        "meta_bstar": -0.052553,
        "meta_mean_motion_dot": -0.02074186,
        "meta_mean_motion_ddot": 0,
        "tle_line1": "1 66566U 25268K   25361.16668980 -.02074186  00000+0 -52553-1 0  9993",
        "tle_line2": "2 66566  43.0001  36.6106 0001002 275.7433 261.9642 15.42593122  6050"
      },
      "geometry": {
        "type": "Point",
        "coordinates": [
          -94.5574645055257,
          -35.675388359448604
        ]
      }
    },
    {
      "type": "Feature",
      "properties": {
        "norad_id": 66567,
        "name": "STARLINK-35825",
        "group": "last-30-days",
        "lat": -39.1603708655634,
        "lon": -84.04756895880848,
        "alt_km": 442.9477400391661,
        "timestamp": "2025-12-27T10:28:57.512693+00:00",
        "meta_object_name": "STARLINK-35825",
        "meta_object_id": "2025-268L",
        "meta_epoch": "2025-12-27T04:00:01.998720",
        "meta_mean_motion": 15.43194033,
        "meta_eccentricity": 7.08e-05,
        "meta_inclination": 43.0003,
        "meta_ra_of_asc_node": 36.5892,
        "meta_arg_of_pericenter": 280.5919,
        "meta_mean_anomaly": 265.5862,
        "meta_ephemeris_type": 0,
        "meta_classification_type": "U",
        "meta_norad_cat_id": 66567,
        "meta_element_set_no": 999,
        "meta_rev_at_epoch": 605,
        "meta_bstar": -0.050627,
        "meta_mean_motion_dot": -0.02043151,
        "meta_mean_motion_ddot": 0,
        "tle_line1": "1 66567U 25268L   25361.16668980 -.02043151  00000+0 -50627-1 0  9992",
        "tle_line2": "2 66567  43.0003  36.5892 0000708 280.5919 265.5862 15.43194033  6052"
      },
      "geometry": {
        "type": "Point",
        "coordinates": [
          -84.04756895880848,
          -39.1603708655634
        ]
      }
    }
  ]
}